[{"OBJECT_NAME":"STARLINK-3720","OBJECT_ID":"2022-029BA","EPOCH":"2026-03-09T06:23:59.490528","MEAN_MOTION":15.08818219,"ECCENTRICITY":0.00014568,"INCLINATION":53.2169,"RA_OF_ASC_NODE":71.0195,"ARG_OF_PERICENTER":74.6079,"MEAN_ANOMALY":285.5074,"EPHEMERIS_TYPE":0,"CLASSIFICATION_TYPE":"U","NORAD_CAT_ID":52136,"ELEMENT_SET_NO":999,"REV_AT_EPOCH":22087,"BSTAR":-0.00016137058,"MEAN_MOTION_DOT":-2.854e-5,"MEAN_MOTION_DDOT":0},{"OBJECT_NAME":"CURIUM ONE","OBJECT_ID":"2024-128H","EPOCH":"2026-03-09T16:29:14.303904","MEAN_MOTION":15.10847276,"ECCENTRICITY":0.00508907,"INCLINATION":61.979,"RA_OF_ASC_NODE":197.7537,"ARG_OF_PERICENTER":110.7183,"MEAN_ANOMALY":249.9377,"EPHEMERIS_TYPE":0,"CLASSIFICATION_TYPE":"U","NORAD_CAT_ID":60242,"ELEMENT_SET_NO":999,"REV_AT_EPOCH":9141,"BSTAR":0.00074106619,"MEAN_MOTION_DOT":0.00012574,"MEAN_MOTION_DDOT":0}]
